STARLINK-35463          
1 66463U 25262H   25338.33335648 -.02140411  00000+0 -33936-1 0  9997
2 66463  42.9993 120.2773 0001218 271.8123 260.3516 15.55858650  4286
STARLINK-35435          
1 66464U 25262J   25338.33335648 -.02143592  00000+0 -33991-1 0  9992
2 66464  42.9995 120.2823 0001192 270.5727 259.6743 15.55860228  4289
STARLINK-35448          
1 66465U 25262K   25338.33335648 -.02140727  00000+0 -33943-1 0  9997
2 66465  42.9994 120.2678 0001107 266.2714 269.7285 15.55858608  4283
STARLINK-35388          
1 66466U 25262L   25338.33335648 -.02143131  00000+0 -33982-1 0  9993
2 66466  42.9991 120.2618 0001263 267.5225 270.3930 15.55859936  4289
STARLINK-35682          
1 66467U 25262M   25338.33335648 -.02140066  00000+0 -33932-1 0  9993
2 66467  42.9993 120.2725 0001184 262.3513 271.7325 15.55857452  4280
STARLINK-35331          
1 66468U 25262N   25338.33335648 -.02141287  00000+0 -33950-1 0  9990
2 66468  42.9992 120.2576 0001234 270.2147 269.6168 15.55859764  4280
STARLINK-35451          
1 66469U 25262P   25338.33335648 -.02142838  00000+0 -33978-1 0  9994
2 66469  42.9996 120.2426 0001169 270.7917 274.7913 15.55860171  4285
STARLINK-35655          
1 66470U 25262Q   25338.33335648 -.02141739  00000+0 -33958-1 0  9993
2 66470  42.9994 120.2534 0001228 269.5952 272.1526 15.55860150  4285
STARLINK-35569          
1 66471U 25262R   25338.33335648 -.02142117  00000+0 -33966-1 0  9994
2 66471  42.9993 120.2483 0001185 266.7814 276.8861 15.55858988  4285
STARLINK-35567          
1 66472U 25262S   25338.33335648 -.02142540  00000+0 -33973-1 0  9993
2 66472  42.9993 120.2385 0001194 267.3449 280.1559 15.55859633  4288
STARLINK-35568          
1 66473U 25262T   25338.33335648 -.02140672  00000+0 -33940-1 0  9992
2 66473  42.9994 120.2335 0001183 266.4053 283.0122 15.55859261  4289
STARLINK-35620          
1 66474U 25262U   25338.33335648 -.02140944  00000+0 -33947-1 0  9992
2 66474  42.9994 120.2283 0001134 263.7846 287.5525 15.55858089  4281
