CCSDS_OMM_VERS = 2.0
CREATION_DATE  = 
ORIGINATOR     = 

OBJECT_NAME    = STARLINK-35463
OBJECT_ID      = 2025-262H
CENTER_NAME    = EARTH
REF_FRAME      = TEME
TIME_SYSTEM    = UTC
MEAN_ELEMENT_THEORY = SGP/SGP4

EPOCH          = 2025-12-04T08:00:01.999872
MEAN_MOTION    = 15.55858650
ECCENTRICITY   = .00012184
INCLINATION    = 42.9993
RA_OF_ASC_NODE = 120.2773
ARG_OF_PERICENTER = 271.8123
MEAN_ANOMALY   = 260.3516

EPHEMERIS_TYPE = 0
CLASSIFICATION_TYPE = U
NORAD_CAT_ID   = 66463
ELEMENT_SET_NO = 999
REV_AT_EPOCH   = 428
BSTAR          = -.33935801E-1
MEAN_MOTION_DOT = -.2140411E-1
MEAN_MOTION_DDOT = 0

CCSDS_OMM_VERS = 2.0
CREATION_DATE  = 
ORIGINATOR     = 

OBJECT_NAME    = STARLINK-35435
OBJECT_ID      = 2025-262J
CENTER_NAME    = EARTH
REF_FRAME      = TEME
TIME_SYSTEM    = UTC
MEAN_ELEMENT_THEORY = SGP/SGP4

EPOCH          = 2025-12-04T08:00:01.999872
MEAN_MOTION    = 15.55860228
ECCENTRICITY   = .00011926
INCLINATION    = 42.9995
RA_OF_ASC_NODE = 120.2823
ARG_OF_PERICENTER = 270.5727
MEAN_ANOMALY   = 259.6743

EPHEMERIS_TYPE = 0
CLASSIFICATION_TYPE = U
NORAD_CAT_ID   = 66464
ELEMENT_SET_NO = 999
REV_AT_EPOCH   = 428
BSTAR          = -.33990949E-1
MEAN_MOTION_DOT = -.2143592E-1
MEAN_MOTION_DDOT = 0

CCSDS_OMM_VERS = 2.0
CREATION_DATE  = 
ORIGINATOR     = 

OBJECT_NAME    = STARLINK-35448
OBJECT_ID      = 2025-262K
CENTER_NAME    = EARTH
REF_FRAME      = TEME
TIME_SYSTEM    = UTC
MEAN_ELEMENT_THEORY = SGP/SGP4

EPOCH          = 2025-12-04T08:00:01.999872
MEAN_MOTION    = 15.55858608
ECCENTRICITY   = .00011072
INCLINATION    = 42.9994
RA_OF_ASC_NODE = 120.2678
ARG_OF_PERICENTER = 266.2714
MEAN_ANOMALY   = 269.7285

EPHEMERIS_TYPE = 0
CLASSIFICATION_TYPE = U
NORAD_CAT_ID   = 66465
ELEMENT_SET_NO = 999
REV_AT_EPOCH   = 428
BSTAR          = -.33942834E-1
MEAN_MOTION_DOT = -.2140727E-1
MEAN_MOTION_DDOT = 0

CCSDS_OMM_VERS = 2.0
CREATION_DATE  = 
ORIGINATOR     = 

OBJECT_NAME    = STARLINK-35388
OBJECT_ID      = 2025-262L
CENTER_NAME    = EARTH
REF_FRAME      = TEME
TIME_SYSTEM    = UTC
MEAN_ELEMENT_THEORY = SGP/SGP4

EPOCH          = 2025-12-04T08:00:01.999872
MEAN_MOTION    = 15.55859936
ECCENTRICITY   = .00012637
INCLINATION    = 42.9991
RA_OF_ASC_NODE = 120.2618
ARG_OF_PERICENTER = 267.5225
MEAN_ANOMALY   = 270.3930

EPHEMERIS_TYPE = 0
CLASSIFICATION_TYPE = U
NORAD_CAT_ID   = 66466
ELEMENT_SET_NO = 999
REV_AT_EPOCH   = 428
BSTAR          = -.33982219E-1
MEAN_MOTION_DOT = -.2143131E-1
MEAN_MOTION_DDOT = 0

CCSDS_OMM_VERS = 2.0
CREATION_DATE  = 
ORIGINATOR     = 

OBJECT_NAME    = STARLINK-35682
OBJECT_ID      = 2025-262M
CENTER_NAME    = EARTH
REF_FRAME      = TEME
TIME_SYSTEM    = UTC
MEAN_ELEMENT_THEORY = SGP/SGP4

EPOCH          = 2025-12-04T08:00:01.999872
MEAN_MOTION    = 15.55857452
ECCENTRICITY   = .00011845
INCLINATION    = 42.9993
RA_OF_ASC_NODE = 120.2725
ARG_OF_PERICENTER = 262.3513
MEAN_ANOMALY   = 271.7325

EPHEMERIS_TYPE = 0
CLASSIFICATION_TYPE = U
NORAD_CAT_ID   = 66467
ELEMENT_SET_NO = 999
REV_AT_EPOCH   = 428
BSTAR          = -.33931559E-1
MEAN_MOTION_DOT = -.2140066E-1
MEAN_MOTION_DDOT = 0

CCSDS_OMM_VERS = 2.0
CREATION_DATE  = 
ORIGINATOR     = 

OBJECT_NAME    = STARLINK-35331
OBJECT_ID      = 2025-262N
CENTER_NAME    = EARTH
REF_FRAME      = TEME
TIME_SYSTEM    = UTC
MEAN_ELEMENT_THEORY = SGP/SGP4

EPOCH          = 2025-12-04T08:00:01.999872
MEAN_MOTION    = 15.55859764
ECCENTRICITY   = .0001234
INCLINATION    = 42.9992
RA_OF_ASC_NODE = 120.2576
ARG_OF_PERICENTER = 270.2147
MEAN_ANOMALY   = 269.6168

EPHEMERIS_TYPE = 0
CLASSIFICATION_TYPE = U
NORAD_CAT_ID   = 66468
ELEMENT_SET_NO = 999
REV_AT_EPOCH   = 428
BSTAR          = -.33949832E-1
MEAN_MOTION_DOT = -.2141287E-1
MEAN_MOTION_DDOT = 0

CCSDS_OMM_VERS = 2.0
CREATION_DATE  = 
ORIGINATOR     = 

OBJECT_NAME    = STARLINK-35451
OBJECT_ID      = 2025-262P
CENTER_NAME    = EARTH
REF_FRAME      = TEME
TIME_SYSTEM    = UTC
MEAN_ELEMENT_THEORY = SGP/SGP4

EPOCH          = 2025-12-04T08:00:01.999872
MEAN_MOTION    = 15.55860171
ECCENTRICITY   = .00011694
INCLINATION    = 42.9996
RA_OF_ASC_NODE = 120.2426
ARG_OF_PERICENTER = 270.7917
MEAN_ANOMALY   = 274.7913

EPHEMERIS_TYPE = 0
CLASSIFICATION_TYPE = U
NORAD_CAT_ID   = 66469
ELEMENT_SET_NO = 999
REV_AT_EPOCH   = 428
BSTAR          = -.33977841E-1
MEAN_MOTION_DOT = -.2142838E-1
MEAN_MOTION_DDOT = 0

CCSDS_OMM_VERS = 2.0
CREATION_DATE  = 
ORIGINATOR     = 

OBJECT_NAME    = STARLINK-35655
OBJECT_ID      = 2025-262Q
CENTER_NAME    = EARTH
REF_FRAME      = TEME
TIME_SYSTEM    = UTC
MEAN_ELEMENT_THEORY = SGP/SGP4

EPOCH          = 2025-12-04T08:00:01.999872
MEAN_MOTION    = 15.55860150
ECCENTRICITY   = .00012287
INCLINATION    = 42.9994
RA_OF_ASC_NODE = 120.2534
ARG_OF_PERICENTER = 269.5952
MEAN_ANOMALY   = 272.1526

EPHEMERIS_TYPE = 0
CLASSIFICATION_TYPE = U
NORAD_CAT_ID   = 66470
ELEMENT_SET_NO = 999
REV_AT_EPOCH   = 428
BSTAR          = -.33957503E-1
MEAN_MOTION_DOT = -.2141739E-1
MEAN_MOTION_DDOT = 0

CCSDS_OMM_VERS = 2.0
CREATION_DATE  = 
ORIGINATOR     = 

OBJECT_NAME    = STARLINK-35569
OBJECT_ID      = 2025-262R
CENTER_NAME    = EARTH
REF_FRAME      = TEME
TIME_SYSTEM    = UTC
MEAN_ELEMENT_THEORY = SGP/SGP4

EPOCH          = 2025-12-04T08:00:01.999872
MEAN_MOTION    = 15.55858988
ECCENTRICITY   = .00011858
INCLINATION    = 42.9993
RA_OF_ASC_NODE = 120.2483
ARG_OF_PERICENTER = 266.7814
MEAN_ANOMALY   = 276.8861

EPHEMERIS_TYPE = 0
CLASSIFICATION_TYPE = U
NORAD_CAT_ID   = 66471
ELEMENT_SET_NO = 999
REV_AT_EPOCH   = 428
BSTAR          = -.33966241E-1
MEAN_MOTION_DOT = -.2142117E-1
MEAN_MOTION_DDOT = 0

CCSDS_OMM_VERS = 2.0
CREATION_DATE  = 
ORIGINATOR     = 

OBJECT_NAME    = STARLINK-35567
OBJECT_ID      = 2025-262S
CENTER_NAME    = EARTH
REF_FRAME      = TEME
TIME_SYSTEM    = UTC
MEAN_ELEMENT_THEORY = SGP/SGP4

EPOCH          = 2025-12-04T08:00:01.999872
MEAN_MOTION    = 15.55859633
ECCENTRICITY   = .00011942
INCLINATION    = 42.9993
RA_OF_ASC_NODE = 120.2385
ARG_OF_PERICENTER = 267.3449
MEAN_ANOMALY   = 280.1559

EPHEMERIS_TYPE = 0
CLASSIFICATION_TYPE = U
NORAD_CAT_ID   = 66472
ELEMENT_SET_NO = 999
REV_AT_EPOCH   = 428
BSTAR          = -.33972883E-1
MEAN_MOTION_DOT = -.214254E-1
MEAN_MOTION_DDOT = 0

CCSDS_OMM_VERS = 2.0
CREATION_DATE  = 
ORIGINATOR     = 

OBJECT_NAME    = STARLINK-35568
OBJECT_ID      = 2025-262T
CENTER_NAME    = EARTH
REF_FRAME      = TEME
TIME_SYSTEM    = UTC
MEAN_ELEMENT_THEORY = SGP/SGP4

EPOCH          = 2025-12-04T08:00:01.999872
MEAN_MOTION    = 15.55859261
ECCENTRICITY   = .00011835
INCLINATION    = 42.9994
RA_OF_ASC_NODE = 120.2335
ARG_OF_PERICENTER = 266.4053
MEAN_ANOMALY   = 283.0122

EPHEMERIS_TYPE = 0
CLASSIFICATION_TYPE = U
NORAD_CAT_ID   = 66473
ELEMENT_SET_NO = 999
REV_AT_EPOCH   = 428
BSTAR          = -.33940096E-1
MEAN_MOTION_DOT = -.2140672E-1
MEAN_MOTION_DDOT = 0

CCSDS_OMM_VERS = 2.0
CREATION_DATE  = 
ORIGINATOR     = 

OBJECT_NAME    = STARLINK-35620
OBJECT_ID      = 2025-262U
CENTER_NAME    = EARTH
REF_FRAME      = TEME
TIME_SYSTEM    = UTC
MEAN_ELEMENT_THEORY = SGP/SGP4

EPOCH          = 2025-12-04T08:00:01.999872
MEAN_MOTION    = 15.55858089
ECCENTRICITY   = .00011344
INCLINATION    = 42.9994
RA_OF_ASC_NODE = 120.2283
ARG_OF_PERICENTER = 263.7846
MEAN_ANOMALY   = 287.5525

EPHEMERIS_TYPE = 0
CLASSIFICATION_TYPE = U
NORAD_CAT_ID   = 66474
ELEMENT_SET_NO = 999
REV_AT_EPOCH   = 428
BSTAR          = -.33947044E-1
MEAN_MOTION_DOT = -.2140944E-1
MEAN_MOTION_DDOT = 0

